{
    "CCSDS_OMM_VERS": "3.0",
    "COMMENT": "GENERATED VIA SPACE-TRACK.ORG API",
    "CREATION_DATE": "2025-11-24T07:26:19",
    "ORIGINATOR": "18 SPCS",
    "OBJECT_NAME": "COSMOS 2475 (GLONASS)",
    "OBJECT_ID": "2011-064C",
    "CENTER_NAME": "EARTH",
    "REF_FRAME": "TEME",
    "TIME_SYSTEM": "UTC",
    "MEAN_ELEMENT_THEORY": "SGP4",
    "EPOCH": "2025-11-24T04:55:50.788416",
    "MEAN_MOTION": "2.13101528",
    "ECCENTRICITY": "0.00257430",
    "INCLINATION": "65.1661",
    "RA_OF_ASC_NODE": "79.8957",
    "ARG_OF_PERICENTER": "247.5933",
    "MEAN_ANOMALY": "118.2351",
    "EPHEMERIS_TYPE": "0",
    "CLASSIFICATION_TYPE": "U",
    "NORAD_CAT_ID": "37869",
    "ELEMENT_SET_NO": "999",
    "REV_AT_EPOCH": "10940",
    "BSTAR": "0.00000000000000",
    "MEAN_MOTION_DOT": "0.00000011",
    "MEAN_MOTION_DDOT": "0.0000000000000",
    "SEMIMAJOR_AXIS": "25508.062",
    "PERIOD": "675.734",
    "APOAPSIS": "19195.592",
    "PERIAPSIS": "19064.262",
    "OBJECT_TYPE": "PAYLOAD",
    "RCS_SIZE": "LARGE",
    "COUNTRY_CODE": "CIS",
    "LAUNCH_DATE": "2011-11-04",
    "SITE": "TTMTR",
    "DECAY_DATE": null,
    "FILE": "4896933",
    "GP_ID": "303365462",
    "TLE_LINE0": "0 COSMOS 2475 (GLONASS)",
    "TLE_LINE1": "1 37869U 11064C   25328.20544894  .00000011  00000-0  00000+0 0  9992",
    "TLE_LINE2": "2 37869  65.1661  79.8957 0025743 247.5933 118.2351  2.13101528109407"
}